CUTE-1 (CO-55)          
1 27844U 03031E   26167.96692816  .00000228  00000+0  11765-3 0  9995
2 27844  98.6736 176.5285 0009524 178.6032 181.5176 14.24335593191646
CUBESAT XI-IV (CO-57)   
1 27848U 03031J   26167.95527529  .00000197  00000+0  10575-3 0  9999
2 27848  98.6766 176.2299 0009009 197.6805 162.4061 14.23620738191347
CUBESAT XI-V            
1 28895U 05043F   26167.38340975  .00001200  00000+0  19649-3 0  9999
2 28895  98.2985 322.9884 0013585 203.3717 156.6874 14.72629782101632
CUTE-1.7+APD II (CO-65) 
1 32785U 08021C   26168.18248431  .00004100  00000+0  26011-3 0  9997
2 32785  97.8272 149.6008 0009757  39.0823 321.1109 15.09451626985191
CANX-2                  
1 32790U 08021H   26167.88948522  .00003878  00000+0  27297-3 0  9995
2 32790  97.8636 147.6611 0011434  51.4391 308.7858 15.05616425984762
SEEDS II (CO-66)        
1 32791U 08021J   26167.93971588  .00015903  00000+0  50504-3 0  9999
2 32791  97.7513 165.8255 0001090   4.6274 355.4977 15.32745063987258
SWISSCUBE               
1 35932U 09051B   26167.55290444  .00000809  00000+0  16935-3 0  9995
2 35932  98.4037  75.4301 0005921 205.2603 154.8309 14.62480577889065
BEESAT-1                
1 35933U 09051C   26167.97272745  .00000674  00000+0  14519-3 0  9992
2 35933  98.3964  75.4933 0004211 217.7177 142.3728 14.61720245889155
ITUPSAT1                
1 35935U 09051E   26167.68937774  .00000621  00000+0  13815-3 0  9992
2 35935  98.4049  74.3979 0006243 235.8160 124.2448 14.60440072888669
TISAT 1                 
1 36799U 10035E   26167.92111727  .00017209  00000+0  56437-3 0  9991
2 36799  98.0714 114.4464 0001362 167.9890 192.1382 15.31700616867660
AEROCUBE 4.5A           
1 38767U 12048K   26167.97411803  .00429029  81714-4  10170-2 0  9993
2 38767  64.6234  27.6641 0019536 224.8957 135.0626 15.96100831372622
STRAND-1                
1 39090U 13009E   26168.05600821  .00000208  00000+0  84356-4 0  9998
2 39090  98.3921 348.2936 0007721 225.7005 134.3549 14.37163232697045
BRITE-AUSTRIA           
1 39091U 13009F   26167.99917520  .00000135  00000+0  60603-4 0  9996
2 39091  98.3994 347.4395 0009143 237.0662 122.9646 14.36542078697028
NEE-01 PEGASO           
1 39151U 13018B   26168.13162645  .00002236  00000+0  21710-3 0  9999
2 39151  98.1222 312.2794 0013099 159.5511 200.6235 14.93659532710690
POPACS 2                
1 39269U 13055E   26168.17649404  .00010961  00000+0  18529-3 0  9995
2 39269  80.9906 144.2043 0416853 193.8061 165.1479 14.91210375663210
POPACS 3                
1 39270U 13055F   26167.91331003  .00008396  00000+0  19719-3 0  9992
2 39270  81.0011 229.4846 0552172  70.8295 295.1804 14.56118366638515
ZACUBE-1 (TSHEPISOSAT)  
1 39417U 13066B   26168.14066506  .00002606  00000+0  20460-3 0  9999
2 39417  97.8081 130.4773 0040796 247.8306 111.8586 15.01188974680727
WNISAT-1                
1 39423U 13066H   26168.14247235  .00000714  00000+0  13888-3 0  9990
2 39423  97.7201 317.3019 0161966 231.7318 126.9218 14.58062098666726
TRITON-1                
1 39427U 13066M   26168.16056119  .00001243  00000+0  15438-3 0  9996
2 39427  97.8253  77.9691 0088497 234.0093 125.2892 14.81704769674088
GOMX-1                  
1 39430U 13066Q   26168.18596690  .00001349  00000+0  20750-3 0  9995
2 39430  97.6476   8.6487 0130200  77.5310 284.0429 14.69459629669917
CUBEBUG-2 (LO-74)       
1 39440U 13066AA  26168.13017218  .00004009  00000+0  37158-3 0  9991
2 39440  97.8909 117.1080 0058392  29.2654 331.1816 14.93761629676984
NEE-02 KRYSAOR          
1 39441U 13066AB  26166.52650133  .00002075  00000+0  23065-3 0  9995
2 39441  97.8896 105.7532 0067689  75.5443 285.3271 14.86612031675959
FUNCUBE-1 (AO-73)       
1 39444U 13066AE  26168.18912497  .00005092  00000+0  31739-3 0  9995
2 39444  97.8278 139.6350 0035625 200.8466 159.1312 15.09490131679660
UWE-3                   
1 39446U 13066AG  26168.14881219  .00003686  00000+0  31825-3 0  9993
2 39446  97.8697 124.2222 0047554 321.2841  38.4975 14.97024580677573
BRITE-CA1 (TORONTO)     
1 40020U 14033L   26168.10572866  .00000592  00000+0  96897-4 0  9993
2 40020  97.9739 297.0351 0077213 277.2847  81.9589 14.72676636642208
DUCHIFAT-1              
1 40021U 14033M   26168.08560661  .00086906  00000+0  89449-3 0  9998
2 40021  98.0464 227.2320 0003017 117.8101 242.3462 15.64575667655739
NANOSATC-BR1            
1 40024U 14033Q   26168.07474524  .00012941  00000+0  42854-3 0  9999
2 40024  98.0715 200.4526 0004408 162.8520 197.2869 15.31454788653968
QB50P1                  
1 40025U 14033R   26168.01826155  .00006622  00000+0  32676-3 0  9995
2 40025  98.0959 179.1525 0007771 215.7704 144.3009 15.18259399653008
QB50P2                  
1 40032U 14033Y   26167.96801632  .00005351  00000+0  28911-3 0  9994
2 40032  98.0747 164.8345 0007998 163.7148 196.4341 15.15156257652638
PERSEUS-M2              
1 40037U 14033AD  26168.13004230  .00001172  00000+0  11130-3 0  9990
2 40037  97.9961 118.6695 0010759 304.2710  55.7490 14.95508083650770
